LANDSAT 9               
1 49260U 21088A   24060.46745863  .00000570  00000+0  13651-3 0  9995
2 49260  98.1985 131.8772 0001407  99.6768 260.4589 14.57102400128851
